FENGYUN 4C              
1 67246U 25312A   26063.61086617 -.00000334  00000+0  00000+0 0  9999
2 67246   0.0333 290.9466 0000760  74.3529 149.9583  1.00273490   730
SHIJIAN-29A (SJ-29A)    
1 67302U 25315A   26063.85587556 -.00000075  00000+0  00000+0 0  9991
2 67302   3.1330  97.8046 0002277 306.5064 139.4749  1.00273031   572
SHIJIAN-29B (SJ-29B)    
1 67403U 25315C   26063.85545742 -.00000076  00000+0  00000+0 0  9995
2 67403   3.1329  97.7877 0003908 317.3281 128.6023  1.00272753   649
LUCH (OLYMP-K 1) DEB    
1 67745U 14058D   26057.46615942 -.00000221  00000+0  00000+0 0  9998
2 67745   1.5795  85.6956 0520769 329.0115  28.4425  0.97993456   262
OBJECT A                
1 67756U 26028A   26063.32217052 -.00000020  00000+0  00000+0 0  9999
2 67756   0.4831 289.6425 0042000 229.2377 201.2600  0.99524032   200
JAM-E JAM 1             
1 67757U 26028B   26062.45557171  .00000140  00000+0  00000+0 0  9994
2 67757   0.5072 285.5539 0002449 116.0725 318.3556  1.00266787    60
UNKNOWN                 
1 83903U          26063.50388050 -.00000378  00000+0  00000+0 0  9996
2 83903   5.9833 289.9004 0122183 253.6952 282.3106  0.99114944 44476
UNKNOWN                 
1 83934U          26062.87712334 -.00000103  00000+0  00000+0 0  9991
2 83934   5.6010 296.9805 0224432 275.7759 294.1932  1.02662559 46117
UNKNOWN                 
1 84407U          26058.21812539 -.00000062  00000+0  15745-1 0  9996
2 84407  19.4512 300.0109 7208492 102.8288 339.5385  2.05796928 77447
UNKNOWN                 
1 84575U          26062.33697389 -.00000072  00000+0  51095-2 0  9994
2 84575  18.0132 131.5702 7115404  71.7416 349.0642  2.19867114 67238
