[{"OBJECT_NAME":"FENGYUN 4C","OBJECT_ID":"2025-312A","EPOCH":"2026-03-04T14:39:38.837088","MEAN_MOTION":1.0027349,"ECCENTRICITY":7.6e-5,"INCLINATION":0.0333,"RA_OF_ASC_NODE":290.9466,"ARG_OF_PERICENTER":74.3529,"MEAN_ANOMALY":149.9583,"EPHEMERIS_TYPE":0,"CLASSIFICATION_TYPE":"U","NORAD_CAT_ID":67246,"ELEMENT_SET_NO":999,"REV_AT_EPOCH":73,"BSTAR":0,"MEAN_MOTION_DOT":-3.34e-6,"MEAN_MOTION_DDOT":0},{"OBJECT_NAME":"SHIJIAN-29A (SJ-29A)","OBJECT_ID":"2025-315A","EPOCH":"2026-03-04T20:32:27.648384","MEAN_MOTION":1.00273031,"ECCENTRICITY":0.0002277,"INCLINATION":3.133,"RA_OF_ASC_NODE":97.8046,"ARG_OF_PERICENTER":306.5064,"MEAN_ANOMALY":139.4749,"EPHEMERIS_TYPE":0,"CLASSIFICATION_TYPE":"U","NORAD_CAT_ID":67302,"ELEMENT_SET_NO":999,"REV_AT_EPOCH":57,"BSTAR":0,"MEAN_MOTION_DOT":-7.5e-7,"MEAN_MOTION_DDOT":0},{"OBJECT_NAME":"SHIJIAN-29B (SJ-29B)","OBJECT_ID":"2025-315C","EPOCH":"2026-03-04T20:31:51.521088","MEAN_MOTION":1.00272753,"ECCENTRICITY":0.0003908,"INCLINATION":3.1329,"RA_OF_ASC_NODE":97.7877,"ARG_OF_PERICENTER":317.3281,"MEAN_ANOMALY":128.6023,"EPHEMERIS_TYPE":0,"CLASSIFICATION_TYPE":"U","NORAD_CAT_ID":67403,"ELEMENT_SET_NO":999,"REV_AT_EPOCH":64,"BSTAR":0,"MEAN_MOTION_DOT":-7.6e-7,"MEAN_MOTION_DDOT":0},{"OBJECT_NAME":"LUCH (OLYMP-K 1) DEB","OBJECT_ID":"2014-058D","EPOCH":"2026-02-26T11:11:16.173888","MEAN_MOTION":0.97993456,"ECCENTRICITY":0.05207694,"INCLINATION":1.5795,"RA_OF_ASC_NODE":85.6956,"ARG_OF_PERICENTER":329.0115,"MEAN_ANOMALY":28.4425,"EPHEMERIS_TYPE":0,"CLASSIFICATION_TYPE":"U","NORAD_CAT_ID":67745,"ELEMENT_SET_NO":999,"REV_AT_EPOCH":26,"BSTAR":0,"MEAN_MOTION_DOT":-2.21e-6,"MEAN_MOTION_DDOT":0},{"OBJECT_NAME":"OBJECT A","OBJECT_ID":"2026-028A","EPOCH":"2026-03-04T07:43:55.532928","MEAN_MOTION":0.99524032,"ECCENTRICITY":0.0042,"INCLINATION":0.4831,"RA_OF_ASC_NODE":289.6425,"ARG_OF_PERICENTER":229.2377,"MEAN_ANOMALY":201.26,"EPHEMERIS_TYPE":0,"CLASSIFICATION_TYPE":"U","NORAD_CAT_ID":67756,"ELEMENT_SET_NO":999,"REV_AT_EPOCH":20,"BSTAR":0,"MEAN_MOTION_DOT":-2.0e-7,"MEAN_MOTION_DDOT":0},{"OBJECT_NAME":"JAM-E JAM 1","OBJECT_ID":"2026-028B","EPOCH":"2026-03-03T10:56:01.395744","MEAN_MOTION":1.00266787,"ECCENTRICITY":0.00024495,"INCLINATION":0.5072,"RA_OF_ASC_NODE":285.5539,"ARG_OF_PERICENTER":116.0725,"MEAN_ANOMALY":318.3556,"EPHEMERIS_TYPE":0,"CLASSIFICATION_TYPE":"U","NORAD_CAT_ID":67757,"ELEMENT_SET_NO":999,"REV_AT_EPOCH":6,"BSTAR":0,"MEAN_MOTION_DOT":1.4e-6,"MEAN_MOTION_DDOT":0},{"OBJECT_NAME":"UNKNOWN","OBJECT_ID":"","EPOCH":"2026-03-04T12:05:35.275200","MEAN_MOTION":0.99114944,"ECCENTRICITY":0.0122183,"INCLINATION":5.9833,"RA_OF_ASC_NODE":289.9004,"ARG_OF_PERICENTER":253.6952,"MEAN_ANOMALY":282.3106,"EPHEMERIS_TYPE":0,"CLASSIFICATION_TYPE":"U","NORAD_CAT_ID":83903,"ELEMENT_SET_NO":999,"REV_AT_EPOCH":4447,"BSTAR":0,"MEAN_MOTION_DOT":-3.78e-6,"MEAN_MOTION_DDOT":0},{"OBJECT_NAME":"UNKNOWN","OBJECT_ID":"","EPOCH":"2026-03-03T21:03:03.456576","MEAN_MOTION":1.02662559,"ECCENTRICITY":0.0224432,"INCLINATION":5.601,"RA_OF_ASC_NODE":296.9805,"ARG_OF_PERICENTER":275.7759,"MEAN_ANOMALY":294.1932,"EPHEMERIS_TYPE":0,"CLASSIFICATION_TYPE":"U","NORAD_CAT_ID":83934,"ELEMENT_SET_NO":999,"REV_AT_EPOCH":4611,"BSTAR":0,"MEAN_MOTION_DOT":-1.03e-6,"MEAN_MOTION_DDOT":0},{"OBJECT_NAME":"UNKNOWN","OBJECT_ID":"","EPOCH":"2026-02-27T05:14:06.033696","MEAN_MOTION":2.05796928,"ECCENTRICITY":0.7208492,"INCLINATION":19.4512,"RA_OF_ASC_NODE":300.0109,"ARG_OF_PERICENTER":102.8288,"MEAN_ANOMALY":339.5385,"EPHEMERIS_TYPE":0,"CLASSIFICATION_TYPE":"U","NORAD_CAT_ID":84407,"ELEMENT_SET_NO":999,"REV_AT_EPOCH":7744,"BSTAR":0.015745,"MEAN_MOTION_DOT":-6.2e-7,"MEAN_MOTION_DDOT":0},{"OBJECT_NAME":"UNKNOWN","OBJECT_ID":"","EPOCH":"2026-03-03T08:05:14.544096","MEAN_MOTION":2.19867114,"ECCENTRICITY":0.7115404,"INCLINATION":18.0132,"RA_OF_ASC_NODE":131.5702,"ARG_OF_PERICENTER":71.7416,"MEAN_ANOMALY":349.0642,"EPHEMERIS_TYPE":0,"CLASSIFICATION_TYPE":"U","NORAD_CAT_ID":84575,"ELEMENT_SET_NO":999,"REV_AT_EPOCH":6723,"BSTAR":0.0051095,"MEAN_MOTION_DOT":-7.2e-7,"MEAN_MOTION_DDOT":0}]
